SL-16 R/B               
1 23405U 94077B   26194.12495675 -.00000191  00000+0 -73168-4 0  9993
2 23405  70.9823  88.5951 0004090 304.9983  55.0756 14.15574600633980
ARIANE 40+ R/B          
1 23561U 95021B   26194.17674780  .00000122  00000+0  52738-4 0  9999
2 23561  98.4401 263.8749 0007845 121.6463 264.6723 14.39846937637304
SL-16 R/B               
1 23705U 95058B   26194.20864867  .00000054  00000+0  52218-4 0  9997
2 23705  71.0211 276.7264 0014603 285.3211  74.6298 14.15508209585617
SL-16 R/B               
1 24298U 96051B   26194.30535329  .00000146  00000+0  10579-3 0  9993
2 24298  70.7647 269.3763 0017655 300.5342  59.4035 14.12455729539389
ORBVIEW 2 (SEASTAR)     
1 24883U 97037A   26193.87826357  .00000113  00000+0  55497-4 0  9996
2 24883  98.8711   1.6123 0003135  65.5807 294.5705 14.35566188526436
SL-16 R/B               
1 25400U 98043G   26193.83184771 -.00000007  00000+0  15940-4 0  9995
2 25400  98.8378 148.2137 0010161  18.0514 342.1024 14.26072492456828
SL-16 R/B               
1 25407U 98045B   26194.15799111 -.00000244  00000+0 -98828-4 0  9990
2 25407  71.0114 277.7129 0008319 209.6452 150.4201 14.16206057444869
ISS (ZARYA)             
1 25544U 98067A   26194.12129675  .00004316  00000+0  86456-4 0  9991
2 25544  51.6304 171.7447 0006685 289.3803  70.6462 15.48996109575778
CZ-4B R/B               
1 25732U 99025C   26194.09277617  .00000024  00000+0  32307-4 0  9999
2 25732  98.6473 235.2777 0036744 345.8565  40.8493 14.18287488405942
OKEAN-O                 
1 25860U 99039A   26193.76014792  .00000283  00000+0  43799-4 0  9996
2 25860  97.9303 252.2628 0000927  82.8184 277.3133 14.80495702452894
SL-16 R/B               
1 25861U 99039B   26194.09581435  .00000241  00000+0  37296-4 0  9996
2 25861  97.9824 252.8832 0014166 205.4976 154.5539 14.81869576455432
DELTA 2 R/B             
1 25876U 99041E   26193.93981027  .00001315  00000+0  24967-3 0  9991
2 25876  51.7613 160.9088 0501330 358.0974   1.8044 14.12078490380726
HELIOS 1B               
1 25977U 99064A   26194.13459839  .00000700  00000+0  82482-4 0  9996
2 25977  98.1588 100.0232 0002061  56.5993 303.5420 14.88072367703918
TERRA                   
1 25994U 99068A   26194.24875213  .00000202  00000+0  50030-4 0  9990
2 25994  97.9443 242.7599 0003331 126.7557 308.3345 14.61122807413419
SL-16 R/B               
1 26070U 00006B   26193.99394547 -.00000216  00000+0 -85221-4 0  9994
2 26070  71.0002 194.3615 0017105 343.0288  17.0260 14.15838534366292
TITAN 4B R/B            
1 26474U 00047B   26194.21999540  .00001312  00000+0  86390-4 0  9991
2 26474  67.9872  47.2885 0045875 260.7247  98.8713 15.10327549411868
ENVISAT                 
1 27386U 02009A   26194.33368076  .00000019  00000+0  19937-4 0  9997
2 27386  98.3846 145.0709 0001341  84.1215  33.4191 14.39070518277243
IDEFIX & ARIANE 42P R/B 
1 27422U 02021B   26194.27849860  .00000088  00000+0  49823-4 0  9993
2 27422  98.5943 131.4794 0011770 172.0547 188.0824 14.31093264261988
AQUA                    
1 27424U 02022A   26194.27153890  .00000378  00000+0  84879-4 0  9999
2 27424  98.4294 164.0786 0000882 109.6165 354.0459 14.62195432287087
CZ-4B R/B               
1 27432U 02024C   26193.98472679  .00000010  00000+0  28071-4 0  9991
2 27432  98.8688 246.6356 0050575  28.2172  21.4970 14.14567965246950
MIDORI II (ADEOS-II)    
1 27597U 02056A   26193.89852745  .00000107  00000+0  59669-4 0  9998
2 27597  98.7893 153.3791 0001580  43.3981 316.7325 14.29362450228181
H-2A R/B                
1 27601U 02056E   26194.33201196  .00000115  00000+0  54670-4 0  9998
2 27601  98.3328 150.0555 0070789 146.4227 335.3195 14.33833287232119
CZ-4B R/B               
1 28059U 03049C   26194.01758654  .00000146  00000+0  45200-4 0  9993
2 28059  98.6908 193.8937 0047508 207.9769 151.8872 14.55115266204824
CZ-2C R/B               
1 28222U 04012C   26194.16142575  .00100274  00000+0  42892-3 0  9997
2 28222  97.7067 272.9570 0011468 197.3679 162.7199 15.84778211224005
SL-16 R/B               
1 28353U 04021B   26194.32470715  .00000036  00000+0  43517-4 0  9991
2 28353  71.0026 328.8335 0006375 226.5530 133.5062 14.14616239140603
CZ-4B R/B               
1 28415U 04035C   26194.08342749  .00004684  00000+0  15716-3 0  9995
2 28415  97.3359 226.8692 0029114 240.5375 119.2961 15.30974783199089
CZ-2C R/B               
1 28480U 04046B   26194.20493632  .00000049  00000+0  32889-4 0  9993
2 28480  98.1919 101.3566 0140015 143.2488 217.8394 14.27032739126409
ARIANE 5 R/B            
1 28499U 04049H   26193.92883716  .00000293  00000+0  39256-4 0  9996
2 28499  98.2739   7.1798 0082730 305.7334  53.6203 14.85477539164383
CZ-2D R/B               
1 28738U 05024B   26194.01573357  .00054658  00000+0  40848-3 0  9996
2 28738  97.3471 214.7884 0002036 197.1497 162.9698 15.72551891159396
ALOS (DAICHI)           
1 28931U 06002A   26194.29536220  .00000490  00000+0  89837-4 0  9993
2 28931  98.1337 149.7840 0000804  95.4408 264.6890 14.70099693 91936
